[{"OBJECT_NAME":"WORLDVIEW-3 (WV-3)","OBJECT_ID":"2014-048A","EPOCH":"2026-04-01T11:38:38.102208","MEAN_MOTION":14.84886753,"ECCENTRICITY":0.0001663,"INCLINATION":97.86,"RA_OF_ASC_NODE":167.3729,"ARG_OF_PERICENTER":149.0262,"MEAN_ANOMALY":211.1051,"EPHEMERIS_TYPE":0,"CLASSIFICATION_TYPE":"U","NORAD_CAT_ID":40115,"ELEMENT_SET_NO":999,"REV_AT_EPOCH":63052,"BSTAR":0.00012878,"MEAN_MOTION_DOT":1.042e-5,"MEAN_MOTION_DDOT":0},{"OBJECT_NAME":"GAOFEN-2","OBJECT_ID":"2014-049A","EPOCH":"2026-04-01T11:38:13.397856","MEAN_MOTION":14.8080841,"ECCENTRICITY":0.000862,"INCLINATION":98.0184,"RA_OF_ASC_NODE":155.746,"ARG_OF_PERICENTER":117.0194,"MEAN_ANOMALY":243.1898,"EPHEMERIS_TYPE":0,"CLASSIFICATION_TYPE":"U","NORAD_CAT_ID":40118,"ELEMENT_SET_NO":999,"REV_AT_EPOCH":62788,"BSTAR":0.00016962,"MEAN_MOTION_DOT":1.255e-5,"MEAN_MOTION_DDOT":0},{"OBJECT_NAME":"YAOGAN-21","OBJECT_ID":"2014-053A","EPOCH":"2026-04-01T11:57:37.078848","MEAN_MOTION":15.25286468,"ECCENTRICITY":0.0008541,"INCLINATION":97.1573,"RA_OF_ASC_NODE":135.0528,"ARG_OF_PERICENTER":17.5975,"MEAN_ANOMALY":342.5557,"EPHEMERIS_TYPE":0,"CLASSIFICATION_TYPE":"U","NORAD_CAT_ID":40143,"ELEMENT_SET_NO":999,"REV_AT_EPOCH":64326,"BSTAR":0.00051004,"MEAN_MOTION_DOT":0.00012791,"MEAN_MOTION_DDOT":0},{"OBJECT_NAME":"YAOGAN-22","OBJECT_ID":"2014-063A","EPOCH":"2026-04-01T08:58:41.853792","MEAN_MOTION":13.15528201,"ECCENTRICITY":0.0006236,"INCLINATION":100.759,"RA_OF_ASC_NODE":241.406,"ARG_OF_PERICENTER":8.3064,"MEAN_ANOMALY":351.8149,"EPHEMERIS_TYPE":0,"CLASSIFICATION_TYPE":"U","NORAD_CAT_ID":40275,"ELEMENT_SET_NO":999,"REV_AT_EPOCH":54971,"BSTAR":6.5546e-5,"MEAN_MOTION_DOT":-2.2e-7,"MEAN_MOTION_DDOT":0},{"OBJECT_NAME":"ASNARO","OBJECT_ID":"2014-070A","EPOCH":"2026-04-01T12:13:42.866688","MEAN_MOTION":15.19793824,"ECCENTRICITY":0.0007035,"INCLINATION":97.3486,"RA_OF_ASC_NODE":169.675,"ARG_OF_PERICENTER":92.3713,"MEAN_ANOMALY":267.8327,"EPHEMERIS_TYPE":0,"CLASSIFICATION_TYPE":"U","NORAD_CAT_ID":40298,"ELEMENT_SET_NO":999,"REV_AT_EPOCH":63236,"BSTAR":0.00053315,"MEAN_MOTION_DOT":0.00011364,"MEAN_MOTION_DDOT":0},{"OBJECT_NAME":"YAOGAN-24","OBJECT_ID":"2014-072A","EPOCH":"2026-04-01T13:18:17.618976","MEAN_MOTION":14.7611561,"ECCENTRICITY":0.0014703,"INCLINATION":98.1349,"RA_OF_ASC_NODE":228.2999,"ARG_OF_PERICENTER":144.7174,"MEAN_ANOMALY":215.5011,"EPHEMERIS_TYPE":0,"CLASSIFICATION_TYPE":"U","NORAD_CAT_ID":40310,"ELEMENT_SET_NO":999,"REV_AT_EPOCH":61241,"BSTAR":0.00025578,"MEAN_MOTION_DOT":1.716e-5,"MEAN_MOTION_DDOT":0},{"OBJECT_NAME":"CBERS 4","OBJECT_ID":"2014-079A","EPOCH":"2026-04-01T12:07:34.464000","MEAN_MOTION":14.35573571,"ECCENTRICITY":2.41e-5,"INCLINATION":98.3439,"RA_OF_ASC_NODE":150.7826,"ARG_OF_PERICENTER":118.3312,"MEAN_ANOMALY":241.7898,"EPHEMERIS_TYPE":0,"CLASSIFICATION_TYPE":"U","NORAD_CAT_ID":40336,"ELEMENT_SET_NO":999,"REV_AT_EPOCH":59295,"BSTAR":8.093e-5,"MEAN_MOTION_DOT":1.91e-6,"MEAN_MOTION_DDOT":0},{"OBJECT_NAME":"YAOGAN-26","OBJECT_ID":"2014-088A","EPOCH":"2026-04-01T11:44:56.709600","MEAN_MOTION":15.44296305,"ECCENTRICITY":0.0003691,"INCLINATION":97.066,"RA_OF_ASC_NODE":93.6625,"ARG_OF_PERICENTER":3.4481,"MEAN_ANOMALY":356.6792,"EPHEMERIS_TYPE":0,"CLASSIFICATION_TYPE":"U","NORAD_CAT_ID":40362,"ELEMENT_SET_NO":999,"REV_AT_EPOCH":62585,"BSTAR":0.00039745,"MEAN_MOTION_DOT":0.00018235,"MEAN_MOTION_DDOT":0},{"OBJECT_NAME":"SMAP","OBJECT_ID":"2015-003A","EPOCH":"2026-04-01T11:58:38.669952","MEAN_MOTION":14.63367626,"ECCENTRICITY":0.0001886,"INCLINATION":98.1307,"RA_OF_ASC_NODE":99.6698,"ARG_OF_PERICENTER":96.9357,"MEAN_ANOMALY":263.2059,"EPHEMERIS_TYPE":0,"CLASSIFICATION_TYPE":"U","NORAD_CAT_ID":40376,"ELEMENT_SET_NO":999,"REV_AT_EPOCH":59640,"BSTAR":0.00013319,"MEAN_MOTION_DOT":6.41e-6,"MEAN_MOTION_DDOT":0},{"OBJECT_NAME":"KOMPSAT-3A","OBJECT_ID":"2015-014A","EPOCH":"2026-04-01T12:32:36.674880","MEAN_MOTION":15.49991016,"ECCENTRICITY":0.0064089,"INCLINATION":97.6882,"RA_OF_ASC_NODE":77.511,"ARG_OF_PERICENTER":96.6114,"MEAN_ANOMALY":264.2437,"EPHEMERIS_TYPE":0,"CLASSIFICATION_TYPE":"U","NORAD_CAT_ID":40536,"ELEMENT_SET_NO":999,"REV_AT_EPOCH":60992,"BSTAR":0.00051506,"MEAN_MOTION_DOT":0.00031371,"MEAN_MOTION_DDOT":0},{"OBJECT_NAME":"SENTINEL-2A","OBJECT_ID":"2015-028A","EPOCH":"2026-04-01T12:02:05.354304","MEAN_MOTION":14.30822228,"ECCENTRICITY":0.0001339,"INCLINATION":98.5625,"RA_OF_ASC_NODE":167.4589,"ARG_OF_PERICENTER":95.6795,"MEAN_ANOMALY":264.4541,"EPHEMERIS_TYPE":0,"CLASSIFICATION_TYPE":"U","NORAD_CAT_ID":40697,"ELEMENT_SET_NO":999,"REV_AT_EPOCH":56276,"BSTAR":8.6703e-5,"MEAN_MOTION_DOT":1.84e-6,"MEAN_MOTION_DDOT":0},{"OBJECT_NAME":"GAOFEN-8","OBJECT_ID":"2015-030A","EPOCH":"2026-04-01T12:18:03.361824","MEAN_MOTION":15.43287424,"ECCENTRICITY":0.0010396,"INCLINATION":97.6934,"RA_OF_ASC_NODE":280.4274,"ARG_OF_PERICENTER":110.2003,"MEAN_ANOMALY":250.0362,"EPHEMERIS_TYPE":0,"CLASSIFICATION_TYPE":"U","NORAD_CAT_ID":40701,"ELEMENT_SET_NO":999,"REV_AT_EPOCH":59961,"BSTAR":0.00054488,"MEAN_MOTION_DOT":0.00024244,"MEAN_MOTION_DDOT":0},{"OBJECT_NAME":"CARBONITE 1 (CBNT-1)","OBJECT_ID":"2015-032D","EPOCH":"2026-04-01T11:46:17.264640","MEAN_MOTION":14.8332708,"ECCENTRICITY":0.0014501,"INCLINATION":97.6477,"RA_OF_ASC_NODE":272.789,"ARG_OF_PERICENTER":181.2501,"MEAN_ANOMALY":178.8679,"EPHEMERIS_TYPE":0,"CLASSIFICATION_TYPE":"U","NORAD_CAT_ID":40718,"ELEMENT_SET_NO":999,"REV_AT_EPOCH":57797,"BSTAR":0.00019523,"MEAN_MOTION_DOT":1.551e-5,"MEAN_MOTION_DDOT":0},{"OBJECT_NAME":"YAOGAN-27","OBJECT_ID":"2015-040A","EPOCH":"2026-04-01T11:24:48.206016","MEAN_MOTION":13.1606875,"ECCENTRICITY":0.0008711,"INCLINATION":100.112,"RA_OF_ASC_NODE":81.2,"ARG_OF_PERICENTER":35.4459,"MEAN_ANOMALY":324.7232,"EPHEMERIS_TYPE":0,"CLASSIFICATION_TYPE":"U","NORAD_CAT_ID":40878,"ELEMENT_SET_NO":999,"REV_AT_EPOCH":50757,"BSTAR":0.0015089,"MEAN_MOTION_DOT":5.31e-6,"MEAN_MOTION_DDOT":0},{"OBJECT_NAME":"GAOFEN-9 01","OBJECT_ID":"2015-047A","EPOCH":"2026-04-01T12:56:29.480640","MEAN_MOTION":14.82738558,"ECCENTRICITY":0.0028206,"INCLINATION":97.6373,"RA_OF_ASC_NODE":130.6892,"ARG_OF_PERICENTER":34.4124,"MEAN_ANOMALY":325.8909,"EPHEMERIS_TYPE":0,"CLASSIFICATION_TYPE":"U","NORAD_CAT_ID":40894,"ELEMENT_SET_NO":999,"REV_AT_EPOCH":56883,"BSTAR":0.00016781,"MEAN_MOTION_DOT":1.313e-5,"MEAN_MOTION_DDOT":0},{"OBJECT_NAME":"YAOGAN-28","OBJECT_ID":"2015-064A","EPOCH":"2026-04-01T12:25:14.575584","MEAN_MOTION":15.26401926,"ECCENTRICITY":0.0012334,"INCLINATION":97.2945,"RA_OF_ASC_NODE":231.4519,"ARG_OF_PERICENTER":102.0946,"MEAN_ANOMALY":258.1676,"EPHEMERIS_TYPE":0,"CLASSIFICATION_TYPE":"U","NORAD_CAT_ID":41026,"ELEMENT_SET_NO":999,"REV_AT_EPOCH":57898,"BSTAR":0.00033297,"MEAN_MOTION_DOT":8.615e-5,"MEAN_MOTION_DDOT":0},{"OBJECT_NAME":"YAOGAN-29","OBJECT_ID":"2015-069A","EPOCH":"2026-04-01T12:46:39.512928","MEAN_MOTION":14.83020563,"ECCENTRICITY":1.87e-5,"INCLINATION":98.011,"RA_OF_ASC_NODE":120.0201,"ARG_OF_PERICENTER":354.9429,"MEAN_ANOMALY":5.1782,"EPHEMERIS_TYPE":0,"CLASSIFICATION_TYPE":"U","NORAD_CAT_ID":41038,"ELEMENT_SET_NO":999,"REV_AT_EPOCH":55926,"BSTAR":5.122e-5,"MEAN_MOTION_DOT":3.62e-6,"MEAN_MOTION_DDOT":0}]
