WORLDVIEW-3 (WV-3)      
1 40115U 14048A   26091.48516322  .00001042  00000+0  12878-3 0  9992
2 40115  97.8600 167.3729 0001663 149.0262 211.1051 14.84886753630529
GAOFEN-2                
1 40118U 14049A   26091.48487729  .00001255  00000+0  16962-3 0  9998
2 40118  98.0184 155.7460 0008620 117.0194 243.1898 14.80808410627883
YAOGAN-21               
1 40143U 14053A   26091.49834582  .00012791  00000+0  51004-3 0  9998
2 40143  97.1573 135.0528 0008541  17.5975 342.5557 15.25286468643261
YAOGAN-22               
1 40275U 14063A   26091.37409553 -.00000022  00000+0  65546-4 0  9990
2 40275 100.7590 241.4060 0006236   8.3064 351.8149 13.15528201549712
ASNARO                  
1 40298U 14070A   26091.50952392  .00011364  00000+0  53315-3 0  9992
2 40298  97.3486 169.6750 0007035  92.3713 267.8327 15.19793824632360
YAOGAN-24               
1 40310U 14072A   26091.55437059  .00001716  00000+0  25578-3 0  9992
2 40310  98.1349 228.2999 0014703 144.7174 215.5011 14.76115610612419
CBERS 4                 
1 40336U 14079A   26091.50526000  .00000191  00000+0  80930-4 0  9997
2 40336  98.3439 150.7826 0000241 118.3312 241.7898 14.35573571592959
YAOGAN-26               
1 40362U 14088A   26091.48954525  .00018235  00000+0  39745-3 0  9995
2 40362  97.0660  93.6625 0003691   3.4481 356.6792 15.44296305625858
SMAP                    
1 40376U 15003A   26091.49905868  .00000641  00000+0  13319-3 0  9996
2 40376  98.1307  99.6698 0001886  96.9357 263.2059 14.63367626596404
KOMPSAT-3A              
1 40536U 15014A   26091.52264670  .00031371  00000+0  51506-3 0  9993
2 40536  97.6882  77.5110 0064089  96.6114 264.2437 15.49991016609924
SENTINEL-2A             
1 40697U 15028A   26091.50145086  .00000184  00000+0  86703-4 0  9999
2 40697  98.5625 167.4589 0001339  95.6795 264.4541 14.30822228562764
GAOFEN-8                
1 40701U 15030A   26091.51253891  .00024244  00000+0  54488-3 0  9990
2 40701  97.6934 280.4274 0010396 110.2003 250.0362 15.43287424599613
CARBONITE 1 (CBNT-1)    
1 40718U 15032D   26091.49047760  .00001551  00000+0  19523-3 0  9990
2 40718  97.6477 272.7890 0014501 181.2501 178.8679 14.83327080577973
YAOGAN-27               
1 40878U 15040A   26091.47555794  .00000531  00000+0  15089-2 0  9994
2 40878 100.1120  81.2000 0008711  35.4459 324.7232 13.16068750507576
GAOFEN-9 01             
1 40894U 15047A   26091.53923010  .00001313  00000+0  16781-3 0  9996
2 40894  97.6373 130.6892 0028206  34.4124 325.8909 14.82738558568834
YAOGAN-28               
1 41026U 15064A   26091.51752981  .00008615  00000+0  33297-3 0  9991
2 41026  97.2945 231.4519 0012334 102.0946 258.1676 15.26401926578989
YAOGAN-29               
1 41038U 15069A   26091.53240177  .00000362  00000+0  51220-4 0  9998
2 41038  98.0110 120.0201 0000187 354.9429   5.1782 14.83020563559267
